IRIDIUM 155             
1 43573U 18061E   23100.30243278  .00000418  00000+0  14226-3 0  9993
2 43573  86.4040 183.0947 0002089 103.7555 256.3874 14.34220142246531
IRIDIUM 154             
1 43574U 18061F   23100.28341082  .00000415  00000+0  14119-3 0  9991
2 43574  86.4044 183.1795 0002199  89.5474 270.5973 14.34217973246582
IRIDIUM 163             
1 43575U 18061G   23100.26439513  .00000419  00000+0  14259-3 0  9996
2 43575  86.4041 183.1389 0002459  95.4012 264.7464 14.34218556246557
IRIDIUM 156             
1 43576U 18061H   23100.30878694  .00000426  00000+0  14516-3 0  9993
2 43576  86.4041 183.1261 0002445 101.0264 259.1206 14.34220834246559
IRIDIUM 164             
1 43577U 18061J   23100.28975428  .00000426  00000+0  14491-3 0  9996
2 43577  86.4042 183.1565 0002355  92.1019 268.0446 14.34220269246597
IRIDIUM 159             
1 43578U 18061K   23100.32781033  .00000421  00000+0  14344-3 0  9991
2 43578  86.4040 183.1020 0002120  96.4389 263.7048 14.34217607246568
IRIDIUM 180             
1 43922U 19002A   23100.11800719  .00000180  00000+0  57095-4 0  9993
2 43922  86.3928 120.1344 0002385  88.5848 271.5621 14.34216892222147
IRIDIUM 176             
1 43923U 19002B   23100.07613079  .00000509  00000+0  76820-4 0  9992
2 43923  86.6062 120.1932 0002459  98.2870 261.8626 14.72241943227978
IRIDIUM 168             
1 43924U 19002C   23100.11167206  .00000178  00000+0  56635-4 0  9998
2 43924  86.3931 120.1814 0002257  88.5656 271.5799 14.34216865222124
IRIDIUM 173             
1 43925U 19002D   23100.09898322  .00000178  00000+0  56642-4 0  9994
2 43925  86.3927 120.1232 0002327  87.1592 272.9870 14.34217317222102
IRIDIUM 169             
1 43926U 19002E   23100.16685676  .00000397  00000+0  12323-3 0  9999
2 43926  86.4248 151.6888 0003165 180.1444 179.9754 14.38609601222873
IRIDIUM 172             
1 43927U 19002F   23100.09263940  .00000175  00000+0  55567-4 0  9990
2 43927  86.3927 120.1304 0002255  89.9008 270.2446 14.34216005222110
IRIDIUM 175             
1 43928U 19002G   23100.06958526  .00000567  00000+0  85928-4 0  9998
2 43928  86.1472 117.8596 0002476  95.4813 264.6686 14.72242697227960
IRIDIUM 171             
1 43929U 19002H   23100.14338019  .00000176  00000+0  55745-4 0  9997
2 43929  86.3938 120.2862 0002308  87.3263 272.8196 14.34217398222114
IRIDIUM 170             
1 43930U 19002J   23100.08228967  .00000547  00000+0  82914-4 0  9992
2 43930  86.6061 120.1956 0002425  95.3371 264.8123 14.72243834227985
IRIDIUM 167             
1 43931U 19002K   23100.13702097  .00000175  00000+0  55345-4 0  9995
2 43931  86.3928 120.1239 0002394  85.9857 274.1612 14.34219489222112
